[ {"name": "STARLINK-5897", "line1": "1 55931U 23037T   26093.80538198  .00000315  00000+0  34233-4 0  9997", "line2": "2 55931  70.0002 240.9504 0002978 268.9564  91.1254 14.98329571167256"}, {"name": "STARLINK-5848", "line1": "1 55932U 23037U   26093.69642700  .00002920  00000+0  25230-3 0  9990", "line2": "2 55932  70.0002 201.2139 0003161 267.9280  92.1517 14.98350090168221"}, {"name": "STARLINK-5852", "line1": "1 55933U 23037V   26093.76344120  .00001099  00000+0  99884-4 0  9997", "line2": "2 55933  70.0001 221.3315 0003055 270.0769  90.0040 14.98333054167733"}, {"name": "STARLINK-5927", "line1": "1 55934U 23037W   26092.40165093  .00281031  00000+0  21497-1 0  9996", "line2": "2 55934  69.9990 224.6020 0011071 231.1348 128.8825 15.00282048167534"}, {"name": "STARLINK-5920", "line1": "1 55935U 23037X   26093.75926586  .00000613  00000+0  59166-4 0  9990", "line2": "2 55935  70.0003 221.3147 0003044 269.6363  90.4448 14.98331450167736"}, {"name": "STARLINK-5882", "line1": "1 55936U 23037Y   26093.70060754 -.00000486  00000+0 -32893-4 0  9990", "line2": "2 55936  70.0008 201.2274 0003203 272.4200  87.6592 14.98339934168227"}, {"name": "STARLINK-5913", "line1": "1 55937U 23037Z   26093.75509015 -.00000330  00000+0 -19889-4 0  9992", "line2": "2 55937  70.0001 221.3000 0002990 269.0904  90.9912 14.98332950167735"}, {"name": "STARLINK-5909", "line1": "1 55938U 23037AA  26093.75091993  .00000093  00000+0  15624-4 0  9991", "line2": "2 55938  70.0004 221.2849 0002804 269.3443  90.7394 14.98329022167732"}, {"name": "STARLINK-5918", "line1": "1 55939U 23037AB  26093.80929586  .00004088  00000+0  34997-3 0  9997", "line2": "2 55939  69.9999 221.0872 0003186 280.0680  80.0119 14.98357344167740"}, {"name": "STARLINK-5864", "line1": "1 55940U 23037AC  26093.74674477 -.00000301  00000+0 -17474-4 0  9996", "line2": "2 55940  70.0008 221.2709 0003027 268.7502  91.3310 14.98330871167730"}, {"name": "STARLINK-5914", "line1": "1 55941U 23037AD  26093.77178814  .00000632  00000+0  60794-4 0  9992", "line2": "2 55941  70.0005 221.3586 0003141 269.9549  90.1251 14.98330972167736"}, {"name": "STARLINK-5917", "line1": "1 55942U 23037AE  26093.78845225  .00001264  00000+0  11372-3 0  9990", "line2": "2 55942  70.0006 221.0130 0003082 269.0094  91.0712 14.98330470167746"}, {"name": "STARLINK-5932", "line1": "1 55943U 23037AF  26093.73004626  .00000404  00000+0  41611-4 0  9993", "line2": "2 55943  70.0006 221.2016 0002791 268.4759  91.6081 14.98332369167732"}, {"name": "STARLINK-5926", "line1": "1 55944U 23037AG  26093.72587935  .00002833  00000+0  24513-3 0  9991", "line2": "2 55944  70.0003 221.1961 0003232 271.3174  88.7615 14.98328870167735"}, {"name": "STARLINK-5925", "line1": "1 55945U 23037AH  26093.83335647  .00028119  00000+0  23557-2 0  9996", "line2": "2 55945  70.0020 220.9761 0003215 273.4649 260.3168 14.98317238  5694"}, {"name": "STARLINK-5857", "line1": "1 55946U 23037AJ  26092.79993885 -.00040718  00000+0 -34547-2 0  9997", "line2": "2 55946  69.9986 223.5827 0001384 245.3227 114.7788 14.97994522167583"}, {"name": "STARLINK-5851", "line1": "1 55947U 23037AK  26093.83335647  .00929185  00000+0  55862-2 0  9995", "line2": "2 55947  70.0010 211.3881 0004723 281.5485 209.2388 15.74991548  5913"}, {"name": "STARLINK-5900", "line1": "1 55948U 23037AL  26093.67975581  .00000358  00000+0  37787-4 0  9995", "line2": "2 55948  70.0007 201.5601 0002869 265.6047  94.4784 14.98334156168215"}, {"name": "STARLINK-5899", "line1": "1 55949U 23037AM  26093.68810858  .00000156  00000+0  20851-4 0  9992", "line2": "2 55949  70.0008 201.5896 0002716 269.4036  90.6811 14.98328365168218"}, {"name": "STARLINK-5911", "line1": "1 55950U 23037AN  26093.67558257  .00000977  00000+0  89684-4 0  9995", "line2": "2 55950  70.0008 201.5455 0003122 268.2302  91.8499 14.98334238168217"}, {"name": "STARLINK-5908", "line1": "1 55951U 23037AP  26093.78428023  .00000691  00000+0  65662-4 0  9998", "line2": "2 55951  70.0004 220.9975 0003209 270.9578  89.1213 14.98334341167743"}, {"name": "STARLINK-5893", "line1": "1 55952U 23037AQ  26093.67992181  .00000794  00000+0  74296-4 0  9995", "line2": "2 55952  70.0008 201.5624 0003003 264.9919  95.0897 14.98333233168214"}, {"name": "STARLINK-5892", "line1": "1 55954U 23037AS  26093.71729684  .00001119  00000+0  10154-3 0  9992", "line2": "2 55954  70.0003 201.2878 0003287 269.9023  90.1760 14.98335539168221"}, {"name": "STARLINK-5878", "line1": "1 55955U 23037AT  26093.73399191  .00000528  00000+0  52064-4 0  9991", "line2": "2 55955  70.0011 201.3481 0003062 265.8840  94.1969 14.98333746168228"}, {"name": "STARLINK-5883", "line1": "1 55956U 23037AU  26093.70894794  .00000929  00000+0  85597-4 0  9990", "line2": "2 55956  70.0009 201.2585 0002862 269.6448  90.4384 14.98334321168223"}, {"name": "STARLINK-5884", "line1": "1 55957U 23037AV  26093.60464904  .00000715  00000+0  67722-4 0  9999", "line2": "2 55957  70.0010 201.6995 0002956 265.9121  94.1700 14.98332630168208"}, {"name": "STARLINK-5928", "line1": "1 55958U 23037AW  26093.72981583  .00000752  00000+0  70824-4 0  9998", "line2": "2 55958  70.0007 201.3322 0003079 268.5799  91.5007 14.98335472168223"}, {"name": "STARLINK-5929", "line1": "1 55959U 23037AX  26093.72564489  .00000386  00000+0  40121-4 0  9991", "line2": "2 55959  70.0001 201.3179 0003236 269.7205  90.3583 14.98334427168223"}, {"name": "STARLINK-5938", "line1": "1 55960U 23037AY  26093.60481189  .00000289  00000+0  31968-4 0  9996", "line2": "2 55960  70.0009 201.6810 0002759 262.4210  97.6636 14.98331829168203"}, {"name": "STARLINK-5933", "line1": "1 55961U 23037AZ  26093.71312733  .00001863  00000+0  16390-3 0  9997", "line2": "2 55961  70.0005 201.2742 0003143 267.4247  92.6553 14.98323121168224"}, {"name": "STARLINK-5906", "line1": "1 55962U 23037BA  26093.68393067  .00000749  00000+0  70514-4 0  9994", "line2": "2 55962  70.0009 201.5692 0003044 266.6778  93.4033 14.98332758168213"}, {"name": "STARLINK-5924", "line1": "1 55963U 23037BB  26093.72146641 -.00004522  00000+0 -37116-3 0  9999", "line2": "2 55963  70.0007 201.3036 0003634 268.8687  91.2056 14.98355339168222"}, {"name": "STARLINK-5895", "line1": "1 55964U 23037BC  26093.67895770  .00026102  00000+0  16790-2 0  9998", "line2": "2 55964  69.9977 196.7015 0005873 267.2727  92.7765 15.08305766168331"}, {"name": "STARLINK-5894", "line1": "1 55965U 23037BD  26093.70480654 -.00001854  00000+0 -14771-3 0  9991", "line2": "2 55965  70.0003 201.2445 0003428 268.9544  91.1222 14.98308775168223"}, {"name": "STARLINK-5905", "line1": "1 55986U 23042A   26093.83335647  .00038038  00000+0  14586-2 0  9990", "line2": "2 55986  42.9997 277.7636 0001645 273.8364  63.9089 15.25861263  5809"}, {"name": "STARLINK-5915", "line1": "1 55987U 23042B   26093.83335647  .00119984  00000+0  44234-2 0  9994", "line2": "2 55987  42.9995 277.2230 0002089 268.3681 298.3418 15.26642220  5819"}, {"name": "STARLINK-5916", "line1": "1 55988U 23042C   26092.93816956 -.00002006  00000+0 -10490-3 0  9998", "line2": "2 55988  43.0010 283.0339 0000798 251.0716 109.0043 15.11063645166573"}, {"name": "STARLINK-5947", "line1": "1 55989U 23042D   26093.83335647  .00134155  00000+0  49476-2 0  9996", "line2": "2 55989  42.9993 277.3853 0001925 271.3020 227.5157 15.26559077  5811"}, {"name": "STARLINK-5946", "line1": "1 55990U 23042E   26093.83335647  .00116258  00000+0  42915-2 0  9993", "line2": "2 55990  42.9995 277.3886 0001559 277.1200 219.9623 15.26619277  5810"}, {"name": "STARLINK-5948", "line1": "1 55991U 23042F   26093.81733475 -.00000018  00000+0  90126-5 0  9990", "line2": "2 55991  43.0027 274.1803 0001945 259.4873 100.5760 15.26737216166753"}, {"name": "STARLINK-5969", "line1": "1 55993U 23042H   26093.83335647  .00031176  00000+0  11676-2 0  9991", "line2": "2 55993  42.9989 277.2626 0001509 274.6137 275.9064 15.26722872  5810"}, {"name": "STARLINK-5956", "line1": "1 55994U 23042J   26093.83335647  .00039057  00000+0  14967-2 0  9994", "line2": "2 55994  43.0001 277.3080 0001478 263.9760 265.7558 15.25873756  5802"}, {"name": "STARLINK-5903", "line1": "1 55996U 23042L   26093.83335647  .00016809  00000+0  63543-3 0  9991", "line2": "2 55996  43.0096 276.9922 0001697 283.1528  20.1002 15.26712499  5711"}, {"name": "STARLINK-5902", "line1": "1 55998U 23042N   26093.83335647  .00047040  00000+0  17540-2 0  9999", "line2": "2 55998  43.0000 277.1477 0001953 270.1891 325.7875 15.26704203  5727"}, {"name": "STARLINK-5901", "line1": "1 55999U 23042P   26093.83335647  .00035109  00000+0  13134-2 0  9998", "line2": "2 55999  43.0002 277.4240 0001811 272.4855 206.3964 15.26711906  5809"}, {"name": "STARLINK-5910", "line1": "1 56000U 23042Q   26093.83335647  .00032799  00000+0  12586-2 0  9994", "line2": "2 56000  43.0001 277.5187 0001660 289.9812 147.2143 15.25896399  5813"}, {"name": "STARLINK-5944", "line1": "1 56001U 23042R   26093.83335647  .00022419  00000+0  13261-2 0  9994", "line2": "2 56001  43.0005 278.1741 0001374 280.5717 241.0262 15.11054924  5825"}, {"name": "STARLINK-5799", "line1": "1 56002U 23042S   26093.83335647  .00380728  00000+0  13534-1 0  9997", "line2": "2 56002  43.0051 277.4840 0001549 264.9685 187.3828 15.26618286  5815"}, {"name": "STARLINK-5789", "line1": "1 56003U 23042T   26093.83335647  .00046448  00000+0  17753-2 0  9994", "line2": "2 56003  43.0008 277.7126 0001821 256.4673 100.0481 15.25890451  5726"}, {"name": "STARLINK-5787", "line1": "1 56004U 23042U   26093.80349260 -.00000357  00000+0 -79544-5 0  9998", "line2": "2 56004  43.0020 278.3319 0001686 272.1380  87.9273 15.11069228166704"}, {"name": "STARLINK-5801", "line1": "1 56005U 23042V   26093.80045491 -.00000506  00000+0 -16727-4 0  9997", "line2": "2 56005  43.0011 278.3115 0001433 263.6366  96.4316 15.11069235166709"}, {"name": "STARLINK-5794", "line1": "1 56006U 23042W   26093.80854603  .00000088  00000+0  18144-4 0  9999", "line2": "2 56006  43.0006 278.3649 0001449 276.6998  83.3682 15.11070272166702"}]